ASTROCAST 0.1           
1 43798U 18099AS  26187.81992038  .00031413  00000+0  54110-3 0  9997
2 43798  97.4362 266.9470 0005630 150.9433 209.2133 15.50999199417477
ASTROCAST-0402          
1 55109U 23001DE  26188.72703573  .00006570  00000+0  23659-3 0  9990
2 55109  97.5573 282.2372 0005914 154.5704 205.5827 15.28911088147676
ASTROCAST-0401          
1 55110U 23001DF  26188.74018422  .00009043  00000+0  32942-3 0  9999
2 55110  97.5554 282.0634 0009433 130.2569 229.9496 15.28393251194340
ASTROCAST-0403          
1 55111U 23001DG  26188.77519554  .00013248  00000+0  42936-3 0  9991
2 55111  97.5615 283.3704 0004126 242.0830 117.9993 15.32124196147710
ASTROCAST-0404          
1 55112U 23001DH  26188.49801801  .00005408  00000+0  19629-3 0  9992
2 55112  97.5662 282.9311 0004804 278.5773  81.4922 15.28745041147636
